[{"OBJECT_NAME":"STARLINK-36766","OBJECT_ID":"2026-042A","EPOCH":"2026-04-03T05:47:59.918208","MEAN_MOTION":15.75244368,"ECCENTRICITY":0.00035649,"INCLINATION":53.1595,"RA_OF_ASC_NODE":71.9192,"ARG_OF_PERICENTER":30.7603,"MEAN_ANOMALY":329.3625,"EPHEMERIS_TYPE":0,"CLASSIFICATION_TYPE":"U","NORAD_CAT_ID":68069,"ELEMENT_SET_NO":999,"REV_AT_EPOCH":596,"BSTAR":0.0018796168,"MEAN_MOTION_DOT":0.00297968,"MEAN_MOTION_DDOT":0},{"OBJECT_NAME":"STARLINK-36823","OBJECT_ID":"2026-042B","EPOCH":"2026-04-03T07:00:08.435520","MEAN_MOTION":15.73367813,"ECCENTRICITY":0.00051932,"INCLINATION":53.1595,"RA_OF_ASC_NODE":71.5151,"ARG_OF_PERICENTER":73.9429,"MEAN_ANOMALY":286.2162,"EPHEMERIS_TYPE":0,"CLASSIFICATION_TYPE":"U","NORAD_CAT_ID":68070,"ELEMENT_SET_NO":999,"REV_AT_EPOCH":597,"BSTAR":-0.012273397,"MEAN_MOTION_DOT":-0.01525117,"MEAN_MOTION_DDOT":0},{"OBJECT_NAME":"STARLINK-36970","OBJECT_ID":"2026-042C","EPOCH":"2026-04-03T04:36:41.949216","MEAN_MOTION":15.75251329,"ECCENTRICITY":0.00012053,"INCLINATION":53.1592,"RA_OF_ASC_NODE":72.3274,"ARG_OF_PERICENTER":110.2076,"MEAN_ANOMALY":249.9074,"EPHEMERIS_TYPE":0,"CLASSIFICATION_TYPE":"U","NORAD_CAT_ID":68071,"ELEMENT_SET_NO":999,"REV_AT_EPOCH":595,"BSTAR":0.0026017811,"MEAN_MOTION_DOT":0.0041881,"MEAN_MOTION_DDOT":0},{"OBJECT_NAME":"STARLINK-36972","OBJECT_ID":"2026-042D","EPOCH":"2026-04-03T06:00:00.999648","MEAN_MOTION":15.75172117,"ECCENTRICITY":0.00010462,"INCLINATION":53.1599,"RA_OF_ASC_NODE":71.7771,"ARG_OF_PERICENTER":100.3827,"MEAN_ANOMALY":356.8037,"EPHEMERIS_TYPE":0,"CLASSIFICATION_TYPE":"U","NORAD_CAT_ID":68072,"ELEMENT_SET_NO":999,"REV_AT_EPOCH":600,"BSTAR":0.00017241211,"MEAN_MOTION_DOT":0.00025793,"MEAN_MOTION_DDOT":0},{"OBJECT_NAME":"STARLINK-37074","OBJECT_ID":"2026-042E","EPOCH":"2026-04-03T02:51:46.907424","MEAN_MOTION":15.75297711,"ECCENTRICITY":0.00016819,"INCLINATION":53.1575,"RA_OF_ASC_NODE":72.5791,"ARG_OF_PERICENTER":112.5291,"MEAN_ANOMALY":247.5908,"EPHEMERIS_TYPE":0,"CLASSIFICATION_TYPE":"U","NORAD_CAT_ID":68073,"ELEMENT_SET_NO":999,"REV_AT_EPOCH":594,"BSTAR":0.0011342504,"MEAN_MOTION_DOT":0.00177376,"MEAN_MOTION_DDOT":0},{"OBJECT_NAME":"STARLINK-37045","OBJECT_ID":"2026-042F","EPOCH":"2026-04-03T04:56:18.284352","MEAN_MOTION":15.75204514,"ECCENTRICITY":0.00017532,"INCLINATION":53.1592,"RA_OF_ASC_NODE":72.4195,"ARG_OF_PERICENTER":48.0719,"MEAN_ANOMALY":312.0451,"EPHEMERIS_TYPE":0,"CLASSIFICATION_TYPE":"U","NORAD_CAT_ID":68074,"ELEMENT_SET_NO":999,"REV_AT_EPOCH":595,"BSTAR":0.0021910103,"MEAN_MOTION_DOT":0.00348918,"MEAN_MOTION_DDOT":0},{"OBJECT_NAME":"STARLINK-37026","OBJECT_ID":"2026-042G","EPOCH":"2026-04-03T05:09:50.227488","MEAN_MOTION":15.75304044,"ECCENTRICITY":0.00011498,"INCLINATION":53.1559,"RA_OF_ASC_NODE":72.4788,"ARG_OF_PERICENTER":50.568,"MEAN_ANOMALY":309.5441,"EPHEMERIS_TYPE":0,"CLASSIFICATION_TYPE":"U","NORAD_CAT_ID":68075,"ELEMENT_SET_NO":999,"REV_AT_EPOCH":595,"BSTAR":0.0013525009,"MEAN_MOTION_DOT":0.00212578,"MEAN_MOTION_DDOT":0},{"OBJECT_NAME":"STARLINK-37023","OBJECT_ID":"2026-042H","EPOCH":"2026-04-03T05:02:21.631776","MEAN_MOTION":15.75317489,"ECCENTRICITY":0.00011739,"INCLINATION":53.1564,"RA_OF_ASC_NODE":72.4446,"ARG_OF_PERICENTER":123.8809,"MEAN_ANOMALY":236.2324,"EPHEMERIS_TYPE":0,"CLASSIFICATION_TYPE":"U","NORAD_CAT_ID":68076,"ELEMENT_SET_NO":999,"REV_AT_EPOCH":595,"BSTAR":0.0008996545,"MEAN_MOTION_DOT":0.00140052,"MEAN_MOTION_DDOT":0},{"OBJECT_NAME":"STARLINK-37036","OBJECT_ID":"2026-042J","EPOCH":"2026-04-03T06:00:00.999648","MEAN_MOTION":15.75190129,"ECCENTRICITY":0.00012438,"INCLINATION":53.1564,"RA_OF_ASC_NODE":72.2505,"ARG_OF_PERICENTER":60.3355,"MEAN_ANOMALY":165.0728,"EPHEMERIS_TYPE":0,"CLASSIFICATION_TYPE":"U","NORAD_CAT_ID":68077,"ELEMENT_SET_NO":999,"REV_AT_EPOCH":600,"BSTAR":-0.00068091867,"MEAN_MOTION_DOT":-0.0010353,"MEAN_MOTION_DDOT":0},{"OBJECT_NAME":"STARLINK-36973","OBJECT_ID":"2026-042K","EPOCH":"2026-04-03T04:23:37.176288","MEAN_MOTION":15.75265549,"ECCENTRICITY":0.0001552,"INCLINATION":53.1582,"RA_OF_ASC_NODE":72.2652,"ARG_OF_PERICENTER":38.198,"MEAN_ANOMALY":321.9151,"EPHEMERIS_TYPE":0,"CLASSIFICATION_TYPE":"U","NORAD_CAT_ID":68078,"ELEMENT_SET_NO":999,"REV_AT_EPOCH":595,"BSTAR":0.0013576887,"MEAN_MOTION_DOT":0.0021305,"MEAN_MOTION_DDOT":0},{"OBJECT_NAME":"STARLINK-37063","OBJECT_ID":"2026-042L","EPOCH":"2026-04-03T05:14:48.438816","MEAN_MOTION":15.81000812,"ECCENTRICITY":9.24e-5,"INCLINATION":53.1562,"RA_OF_ASC_NODE":71.7664,"ARG_OF_PERICENTER":32.7757,"MEAN_ANOMALY":327.3323,"EPHEMERIS_TYPE":0,"CLASSIFICATION_TYPE":"U","NORAD_CAT_ID":68079,"ELEMENT_SET_NO":999,"REV_AT_EPOCH":596,"BSTAR":0.0017593067,"MEAN_MOTION_DOT":0.00363705,"MEAN_MOTION_DDOT":0},{"OBJECT_NAME":"STARLINK-37051","OBJECT_ID":"2026-042M","EPOCH":"2026-04-03T06:01:31.349856","MEAN_MOTION":15.75320146,"ECCENTRICITY":0.00013173,"INCLINATION":53.1582,"RA_OF_ASC_NODE":71.981,"ARG_OF_PERICENTER":80.7971,"MEAN_ANOMALY":279.3198,"EPHEMERIS_TYPE":0,"CLASSIFICATION_TYPE":"U","NORAD_CAT_ID":68080,"ELEMENT_SET_NO":999,"REV_AT_EPOCH":596,"BSTAR":0.0015797894,"MEAN_MOTION_DOT":0.00249689,"MEAN_MOTION_DDOT":0},{"OBJECT_NAME":"STARLINK-37066","OBJECT_ID":"2026-042N","EPOCH":"2026-04-03T04:49:17.414400","MEAN_MOTION":15.75271319,"ECCENTRICITY":0.00011136,"INCLINATION":53.1596,"RA_OF_ASC_NODE":72.3855,"ARG_OF_PERICENTER":53.7875,"MEAN_ANOMALY":306.3248,"EPHEMERIS_TYPE":0,"CLASSIFICATION_TYPE":"U","NORAD_CAT_ID":68081,"ELEMENT_SET_NO":999,"REV_AT_EPOCH":595,"BSTAR":0.00065687087,"MEAN_MOTION_DOT":0.00101408,"MEAN_MOTION_DDOT":0},{"OBJECT_NAME":"STARLINK-37054","OBJECT_ID":"2026-042P","EPOCH":"2026-04-03T06:00:00.999648","MEAN_MOTION":15.75257249,"ECCENTRICITY":0.00011466,"INCLINATION":53.1593,"RA_OF_ASC_NODE":71.614,"ARG_OF_PERICENTER":91.1923,"MEAN_ANOMALY":85.0505,"EPHEMERIS_TYPE":0,"CLASSIFICATION_TYPE":"U","NORAD_CAT_ID":68082,"ELEMENT_SET_NO":999,"REV_AT_EPOCH":600,"BSTAR":-0.00031009348,"MEAN_MOTION_DOT":-0.00047942,"MEAN_MOTION_DDOT":0},{"OBJECT_NAME":"STARLINK-37065","OBJECT_ID":"2026-042Q","EPOCH":"2026-04-03T04:55:49.753344","MEAN_MOTION":15.75257468,"ECCENTRICITY":0.00013972,"INCLINATION":53.1591,"RA_OF_ASC_NODE":72.415,"ARG_OF_PERICENTER":115.5889,"MEAN_ANOMALY":244.5276,"EPHEMERIS_TYPE":0,"CLASSIFICATION_TYPE":"U","NORAD_CAT_ID":68083,"ELEMENT_SET_NO":999,"REV_AT_EPOCH":595,"BSTAR":0.0029406711,"MEAN_MOTION_DOT":0.00476885,"MEAN_MOTION_DDOT":0},{"OBJECT_NAME":"STARLINK-37037","OBJECT_ID":"2026-042R","EPOCH":"2026-04-03T04:29:41.424864","MEAN_MOTION":15.75279678,"ECCENTRICITY":0.00013526,"INCLINATION":53.1586,"RA_OF_ASC_NODE":72.294,"ARG_OF_PERICENTER":129.995,"MEAN_ANOMALY":230.119,"EPHEMERIS_TYPE":0,"CLASSIFICATION_TYPE":"U","NORAD_CAT_ID":68084,"ELEMENT_SET_NO":999,"REV_AT_EPOCH":595,"BSTAR":0.0010105613,"MEAN_MOTION_DOT":0.00157463,"MEAN_MOTION_DDOT":0}]
